ONEWEB-0233             
1 48795U 21045AE  25062.83245984 -.00000842  00000+0 -22700-2 0  9991
2 48795  87.9141 352.9300 0002035  75.7813 284.3543 13.15537259182458
ONEWEB-0190             
1 48796U 21045AF  25062.81987787 -.00000014  00000+0 -72097-4 0  9991
2 48796  87.9141 352.8953 0002708  82.0461 278.0976 13.15546330182527
ONEWEB-0236             
1 48797U 21045AG  25062.83730427 -.00000102  00000+0 -30608-3 0  9990
2 48797  87.9142 352.8955 0001975  76.5102 283.6248 13.15545764182418
ONEWEB-0248             
1 48798U 21045AH  25062.85000072  .00000071  00000+0  15506-3 0  9992
2 48798  87.9132 352.8610 0002499  70.8465 289.2936 13.15548060182572
ONEWEB-0225             
1 48799U 21045AJ  25063.17639864  .00000302  00000+0  76728-3 0  9996
2 48799  87.9140 352.8208 0002206  78.6632 281.4746 13.15551590183760
ONEWEB-0215             
1 48800U 21045AK  25062.84207621 -.00000092  00000+0 -27968-3 0  9994
2 48800  87.9131 352.8462 0002580  74.8834 285.2582 13.15548749182459
ONEWEB-0216             
1 48801U 21045AL  25063.15581070  .00000058  00000+0  12081-3 0  9993
2 48801  87.9135 352.8282 0001892  86.6145 273.5202 13.15548704183625
ONEWEB-0239             
1 48802U 21045AM  25063.16056329  .00000060  00000+0  12550-3 0  9993
2 48802  87.9143 352.8260 0002626  69.1910 290.9501 13.15549144183683
